start=new Date('2021-09-30T00:00:00.000Z').valueOf();
sats=[{"FILE":"3134986","OBJECT_NAME":"STARLINK-2439","MEAN_ELEMENT_THEORY":"SGP4","TLE_LINE1":"1 48104U 21027N   21272.31940391  .00001916  00000-0  14745-3 0  9994","REF_FRAME":"TEME","MEAN_MOTION_DOT":"0.00001916","DECAY_DATE":null,"SEMIMAJOR_AXIS":"6925.320","PERIAPSIS":"546.328","RA_OF_ASC_NODE":"239.7161","APOAPSIS":"548.043","EPOCH":"2021-09-29T07:39:56.497824","SITE":"AFETR","CENTER_NAME":"EARTH","TLE_LINE2":"2 48104  53.0557 239.7161 0001238  26.5363 333.5689 15.06409256 28108","MEAN_MOTION":"15.06409256","OBJECT_TYPE":"PAYLOAD","GP_ID":"185792958","REV_AT_EPOCH":"2810","TIME_SYSTEM":"UTC","INCLINATION":"53.0557","ECCENTRICITY":"0.00012380","MEAN_ANOMALY":"333.5689","NORAD_CAT_ID":"48104","OBJECT_ID":"2021-027N","PERIOD":"95.592","LAUNCH_DATE":"2021-04-07","RCS_SIZE":"LARGE","COUNTRY_CODE":"US","ARG_OF_PERICENTER":"26.5363","CLASSIFICATION_TYPE":"U","EPHEMERIS_TYPE":"0","BSTAR":"0.00014745000000","MEAN_MOTION_DDOT":"0.0000000000000","ELEMENT_SET_NO":"999"},{"REV_AT_EPOCH":"2873","TIME_SYSTEM":"UTC","GP_ID":"185792709","MEAN_MOTION":"15.73231828","OBJECT_TYPE":"PAYLOAD","ECCENTRICITY":"0.00041060","INCLINATION":"53.0447","COUNTRY_CODE":"US","RCS_SIZE":"LARGE","PERIOD":"91.531","LAUNCH_DATE":"2021-04-07","NORAD_CAT_ID":"48105","MEAN_ANOMALY":"344.8712","OBJECT_ID":"2021-027P","BSTAR":"0.00001428600000","ELEMENT_SET_NO":"999","MEAN_MOTION_DDOT":"0.0000000000000","EPHEMERIS_TYPE":"0","CLASSIFICATION_TYPE":"U","ARG_OF_PERICENTER":"15.2429","REF_FRAME":"TEME","TLE_LINE1":"1 48105U 21027P   21272.18427379  .00001383  00000-0  14286-4 0  9995","MEAN_ELEMENT_THEORY":"SGP4","FILE":"3134986","OBJECT_NAME":"STARLINK-2440","MEAN_MOTION_DOT":"0.00001383","RA_OF_ASC_NODE":"193.3915","DECAY_DATE":null,"SEMIMAJOR_AXIS":"6727.804","PERIAPSIS":"346.907","TLE_LINE2":"2 48105  53.0447 193.3915 0004106  15.2429 344.8712 15.73231828 28737","CENTER_NAME":"EARTH","APOAPSIS":"352.432","EPOCH":"2021-09-29T04:25:21.255456","SITE":"AFETR"},{"LAUNCH_DATE":"2021-04-07","PERIOD":"95.592","OBJECT_ID":"2021-027Q","NORAD_CAT_ID":"48106","MEAN_ANOMALY":"307.7162","COUNTRY_CODE":"US","RCS_SIZE":"LARGE","CLASSIFICATION_TYPE":"U","ARG_OF_PERICENTER":"52.3956","ELEMENT_SET_NO":"999","MEAN_MOTION_DDOT":"0.0000000000000","BSTAR":"0.00003817300000","EPHEMERIS_TYPE":"0","OBJECT_TYPE":"PAYLOAD","MEAN_MOTION":"15.06397696","TIME_SYSTEM":"UTC","REV_AT_EPOCH":"2781","GP_ID":"185801299","INCLINATION":"53.0546","ECCENTRICITY":"0.00014270","RA_OF_ASC_NODE":"233.4129","SEMIMAJOR_AXIS":"6925.356","DECAY_DATE":null,"PERIAPSIS":"546.232","CENTER_NAME":"EARTH","SITE":"AFETR","EPOCH":"2021-09-29T14:35:54.261024","APOAPSIS":"548.209","TLE_LINE2":"2 48106  53.0546 233.4129 0001427  52.3956 307.7162 15.06397696 27818","TLE_LINE1":"1 48106U 21027Q   21272.60826691  .00000287  00000-0  38173-4 0  9996","FILE":"3135342","OBJECT_NAME":"STARLINK-2442","MEAN_ELEMENT_THEORY":"SGP4","REF_FRAME":"TEME","MEAN_MOTION_DOT":"0.00000287"},{"RA_OF_ASC_NODE":"234.8314","PERIAPSIS":"546.198","DECAY_DATE":null,"SEMIMAJOR_AXIS":"6925.335","TLE_LINE2":"2 48107  53.0545 234.8314 0001447  67.1207 292.9934 15.06404520 28160","CENTER_NAME":"EARTH","SITE":"AFETR","EPOCH":"2021-09-29T07:00:48.010176","APOAPSIS":"548.202","REF_FRAME":"TEME","TLE_LINE1":"1 48107U 21027R   21272.29222234  .00000051  00000-0  22347-4 0  9990","FILE":"3134986","OBJECT_NAME":"STARLINK-2443","MEAN_ELEMENT_THEORY":"SGP4","MEAN_MOTION_DOT":"0.00000051","COUNTRY_CODE":"US","RCS_SIZE":"LARGE","LAUNCH_DATE":"2021-04-07","PERIOD":"95.592","OBJECT_ID":"2021-027R","MEAN_ANOMALY":"292.9934","NORAD_CAT_ID":"48107","MEAN_MOTION_DDOT":"0.0000000000000","ELEMENT_SET_NO":"999","BSTAR":"0.00002234700000","EPHEMERIS_TYPE":"0","CLASSIFICATION_TYPE":"U","ARG_OF_PERICENTER":"67.1207","REV_AT_EPOCH":"2816","TIME_SYSTEM":"UTC","GP_ID":"185792207","OBJECT_TYPE":"PAYLOAD","MEAN_MOTION":"15.06404520","ECCENTRICITY":"0.00014470","INCLINATION":"53.0545"},{"SEMIMAJOR_AXIS":"6925.450","DECAY_DATE":null,"PERIAPSIS":"546.626","RA_OF_ASC_NODE":"244.6643","APOAPSIS":"548.004","EPOCH":"2021-09-29T07:57:51.368256","SITE":"AFETR","CENTER_NAME":"EARTH","TLE_LINE2":"2 48108  53.0546 244.6643 0000995  58.7249 301.3837 15.06366794 28027","OBJECT_NAME":"STARLINK-2444","FILE":"3134986","MEAN_ELEMENT_THEORY":"SGP4","TLE_LINE1":"1 48108U 21027S   21272.33184454 -.00006683  00000-0 -43057-3 0  9996","REF_FRAME":"TEME","MEAN_MOTION_DOT":"-0.00006683","NORAD_CAT_ID":"48108","MEAN_ANOMALY":"301.3837","OBJECT_ID":"2021-027S","PERIOD":"95.594","LAUNCH_DATE":"2021-04-07","RCS_SIZE":"LARGE","COUNTRY_CODE":"US","ARG_OF_PERICENTER":"58.7249","CLASSIFICATION_TYPE":"U","EPHEMERIS_TYPE":"0","BSTAR":"-0.00043057000000","MEAN_MOTION_DDOT":"0.0000000000000","ELEMENT_SET_NO":"999","MEAN_MOTION":"15.06366794","OBJECT_TYPE":"PAYLOAD","GP_ID":"185792459","TIME_SYSTEM":"UTC","REV_AT_EPOCH":"2802","INCLINATION":"53.0546","ECCENTRICITY":"0.00009950"},{"CENTER_NAME":"EARTH","APOAPSIS":"547.956","SITE":"AFETR","EPOCH":"2021-09-29T16:15:27.862848","TLE_LINE2":"2 48109  53.0548 253.1008 0001060  60.5363 299.5732 15.06397113 27549","RA_OF_ASC_NODE":"253.1008","DECAY_DATE":null,"SEMIMAJOR_AXIS":"6925.357","PERIAPSIS":"546.488","MEAN_MOTION_DOT":"0.00001156","TLE_LINE1":"1 48109U 21027T   21272.67740582  .00001156  00000-0  96491-4 0  9993","FILE":"3135143","MEAN_ELEMENT_THEORY":"SGP4","OBJECT_NAME":"STARLINK-2445","REF_FRAME":"TEME","CLASSIFICATION_TYPE":"U","ARG_OF_PERICENTER":"60.5363","BSTAR":"0.00009649100000","ELEMENT_SET_NO":"999","MEAN_MOTION_DDOT":"0.0000000000000","EPHEMERIS_TYPE":"0","PERIOD":"95.592","LAUNCH_DATE":"2021-04-07","NORAD_CAT_ID":"48109","MEAN_ANOMALY":"299.5732","OBJECT_ID":"2021-027T","COUNTRY_CODE":"US","RCS_SIZE":"LARGE","INCLINATION":"53.0548","ECCENTRICITY":"0.00010600","MEAN_MOTION":"15.06397113","OBJECT_TYPE":"PAYLOAD","TIME_SYSTEM":"UTC","REV_AT_EPOCH":"2754","GP_ID":"185797068"},{"NORAD_CAT_ID":"48110","MEAN_ANOMALY":"311.9120","OBJECT_ID":"2021-027U","PERIOD":"95.592","LAUNCH_DATE":"2021-04-07","RCS_SIZE":"LARGE","COUNTRY_CODE":"US","ARG_OF_PERICENTER":"48.1956","CLASSIFICATION_TYPE":"U","EPHEMERIS_TYPE":"0","BSTAR":"0.00015709000000","ELEMENT_SET_NO":"999","MEAN_MOTION_DDOT":"0.0000000000000","MEAN_MOTION":"15.06404580","OBJECT_TYPE":"PAYLOAD","GP_ID":"185791957","REV_AT_EPOCH":"2803","TIME_SYSTEM":"UTC","INCLINATION":"53.0548","ECCENTRICITY":"0.00010280","DECAY_DATE":null,"PERIAPSIS":"546.488","SEMIMAJOR_AXIS":"6925.335","RA_OF_ASC_NODE":"244.7037","APOAPSIS":"547.911","EPOCH":"2021-09-29T07:41:56.429664","SITE":"AFETR","CENTER_NAME":"EARTH","TLE_LINE2":"2 48110  53.0548 244.7037 0001028  48.1956 311.9120 15.06404580 28035","OBJECT_NAME":"STARLINK-2447","FILE":"3134986","MEAN_ELEMENT_THEORY":"SGP4","TLE_LINE1":"1 48110U 21027U   21272.32079201  .00002060  00000-0  15709-3 0  9997","REF_FRAME":"TEME","MEAN_MOTION_DOT":"0.00002060"},{"BSTAR":"0.00016360000000","ELEMENT_SET_NO":"999","MEAN_MOTION_DDOT":"0.0000000000000","EPHEMERIS_TYPE":"0","CLASSIFICATION_TYPE":"U","ARG_OF_PERICENTER":"59.9931","COUNTRY_CODE":"US","RCS_SIZE":"LARGE","PERIOD":"95.592","LAUNCH_DATE":"2021-04-07","MEAN_ANOMALY":"300.1158","NORAD_CAT_ID":"48111","OBJECT_ID":"2021-027V","ECCENTRICITY":"0.00010090","INCLINATION":"53.0610","TIME_SYSTEM":"UTC","REV_AT_EPOCH":"2768","GP_ID":"185797078","MEAN_MOTION":"15.06402386","OBJECT_TYPE":"PAYLOAD","TLE_LINE2":"2 48111  53.0610 243.2306 0001009  59.9931 300.1158 15.06402386 27684","CENTER_NAME":"EARTH","APOAPSIS":"547.905","SITE":"AFETR","EPOCH":"2021-09-29T15:32:58.329312","RA_OF_ASC_NODE":"243.2306","SEMIMAJOR_AXIS":"6925.341","DECAY_DATE":null,"PERIAPSIS":"546.507","MEAN_MOTION_DOT":"0.00002156","REF_FRAME":"TEME","TLE_LINE1":"1 48111U 21027V   21272.64789733  .00002156  00000-0  16360-3 0  9991","MEAN_ELEMENT_THEORY":"SGP4","FILE":"3135148","OBJECT_NAME":"STARLINK-2448"},{"INCLINATION":"53.0572","ECCENTRICITY":"0.00010850","MEAN_MOTION":"15.06391375","OBJECT_TYPE":"PAYLOAD","GP_ID":"185792959","REV_AT_EPOCH":"2782","TIME_SYSTEM":"UTC","ARG_OF_PERICENTER":"65.1802","CLASSIFICATION_TYPE":"U","EPHEMERIS_TYPE":"0","BSTAR":"0.00012763000000","ELEMENT_SET_NO":"999","MEAN_MOTION_DDOT":"0.0000000000000","MEAN_ANOMALY":"294.9300","NORAD_CAT_ID":"48112","OBJECT_ID":"2021-027W","PERIOD":"95.593","LAUNCH_DATE":"2021-04-07","RCS_SIZE":"LARGE","COUNTRY_CODE":"US","MEAN_MOTION_DOT":"0.00001620","FILE":"3134986","OBJECT_NAME":"STARLINK-2449","MEAN_ELEMENT_THEORY":"SGP4","TLE_LINE1":"1 48112U 21027W   21272.35718568  .00001620  00000-0  12763-3 0  9996","REF_FRAME":"TEME","APOAPSIS":"547.991","SITE":"AFETR","EPOCH":"2021-09-29T08:34:20.842752","CENTER_NAME":"EARTH","TLE_LINE2":"2 48112  53.0572 259.5471 0001085  65.1802 294.9300 15.06391375 27825","DECAY_DATE":null,"SEMIMAJOR_AXIS":"6925.375","PERIAPSIS":"546.489","RA_OF_ASC_NODE":"259.5471"},{"REF_FRAME":"TEME","TLE_LINE1":"1 48113U 21027X   21272.64055115  .00000546  00000-0  55506-4 0  9990","FILE":"3135438","MEAN_ELEMENT_THEORY":"SGP4","OBJECT_NAME":"STARLINK-2450","MEAN_MOTION_DOT":"0.00000546","RA_OF_ASC_NODE":"253.2731","PERIAPSIS":"546.464","DECAY_DATE":null,"SEMIMAJOR_AXIS":"6925.349","TLE_LINE2":"2 48113  53.0542 253.2731 0001082  49.3065 310.8017 15.06399946 27538","CENTER_NAME":"EARTH","EPOCH":"2021-09-29T15:22:23.619360","SITE":"AFETR","APOAPSIS":"547.963","TIME_SYSTEM":"UTC","REV_AT_EPOCH":"2753","GP_ID":"185803551","OBJECT_TYPE":"PAYLOAD","MEAN_MOTION":"15.06399946","ECCENTRICITY":"0.00010820","INCLINATION":"53.0542","COUNTRY_CODE":"US","RCS_SIZE":"LARGE","LAUNCH_DATE":"2021-04-07","PERIOD":"95.592","OBJECT_ID":"2021-027X","MEAN_ANOMALY":"310.8017","NORAD_CAT_ID":"48113","MEAN_MOTION_DDOT":"0.0000000000000","ELEMENT_SET_NO":"999","BSTAR":"0.00005550600000","EPHEMERIS_TYPE":"0","CLASSIFICATION_TYPE":"U","ARG_OF_PERICENTER":"49.3065"}];
